{"type": "FeatureCollection", "features": [ {"type": "Feature", "properties": {"norad_id": 66608, "name": "STARLINK-36036", "group": "last-30-days", "lat": 42.48550094326961, "lon": -98.9243439158212, "alt_km": 409.0682315857148, "timestamp": "2025-12-14T14:39:28.132377+00:00", "meta": {"OBJECT_NAME": "STARLINK-36036", "OBJECT_ID": "2025-270W", "EPOCH": "2025-12-13T20:00:03.000384", "MEAN_MOTION": 15.50522755, "ECCENTRICITY": 0.00014173, "INCLINATION": 42.9998, "RA_OF_ASC_NODE": 186.2486, "ARG_OF_PERICENTER": 270.0012, "MEAN_ANOMALY": 147.6342, "EPHEMERIS_TYPE": 0, "CLASSIFICATION_TYPE": "U", "NORAD_CAT_ID": 66608, "ELEMENT_SET_NO": 999, "REV_AT_EPOCH": 441, "BSTAR": 0.0011395985, "MEAN_MOTION_DOT": 0.00066952, "MEAN_MOTION_DDOT": 0}, "tle": {"line1": "1 66608U 25270W   25347.83336806  .00066952  00000+0  11396-2 0  9999", "line2": "2 66608  42.9998 186.2486 0001417 270.0012 147.6342 15.50522755  4412"}}, "geometry": {"type": "Point", "coordinates": [-98.9243439158212, 42.48550094326961]}}, {"type": "Feature", "properties": {"norad_id": 66609, "name": "STARLINK-36034", "group": "last-30-days", "lat": 42.69893349074761, "lon": -96.31727608114707, "alt_km": 409.08285178052665, "timestamp": "2025-12-14T14:39:28.132389+00:00", "meta": {"OBJECT_NAME": "STARLINK-36034", "OBJECT_ID": "2025-270X", "EPOCH": "2025-12-13T20:00:03.000384", "MEAN_MOTION": 15.50520601, "ECCENTRICITY": 0.00015271, "INCLINATION": 42.9997, "RA_OF_ASC_NODE": 186.2445, "ARG_OF_PERICENTER": 265.0586, "MEAN_ANOMALY": 154.4919, "EPHEMERIS_TYPE": 0, "CLASSIFICATION_TYPE": "U", "NORAD_CAT_ID": 66609, "ELEMENT_SET_NO": 999, "REV_AT_EPOCH": 441, "BSTAR": 0.0013278375, "MEAN_MOTION_DOT": 0.00078175, "MEAN_MOTION_DDOT": 0}, "tle": {"line1": "1 66609U 25270X   25347.83336806  .00078175  00000+0  13278-2 0  9991", "line2": "2 66609  42.9997 186.2445 0001527 265.0586 154.4919 15.50520601  4413"}}, "geometry": {"type": "Point", "coordinates": [-96.31727608114707, 42.69893349074761]}}, {"type": "Feature", "properties": {"norad_id": 66610, "name": "STARLINK-35680", "group": "last-30-days", "lat": 42.84679422510059, "lon": -93.82193592010842, "alt_km": 409.3544307110933, "timestamp": "2025-12-14T14:39:28.132399+00:00", "meta": {"OBJECT_NAME": "STARLINK-35680", "OBJECT_ID": "2025-270Y", "EPOCH": "2025-12-13T20:00:03.000384", "MEAN_MOTION": 15.50577114, "ECCENTRICITY": 0.00014588, "INCLINATION": 42.9997, "RA_OF_ASC_NODE": 186.2389, "ARG_OF_PERICENTER": 277.8723, "MEAN_ANOMALY": 143.607, "EPHEMERIS_TYPE": 0, "CLASSIFICATION_TYPE": "U", "NORAD_CAT_ID": 66610, "ELEMENT_SET_NO": 999, "REV_AT_EPOCH": 468, "BSTAR": -0.00063962744, "MEAN_MOTION_DOT": -0.00037682, "MEAN_MOTION_DDOT": 0}, "tle": {"line1": "1 66610U 25270Y   25347.83336806 -.00037682  00000+0 -63963-3 0  9990", "line2": "2 66610  42.9997 186.2389 0001458 277.8723 143.6070 15.50577114  4687"}}, "geometry": {"type": "Point", "coordinates": [-93.82193592010842, 42.84679422510059]}}, {"type": "Feature", "properties": {"norad_id": 66611, "name": "STARLINK-35583", "group": "last-30-days", "lat": 42.9475899267213, "lon": -91.01916018609943, "alt_km": 408.96839440893655, "timestamp": "2025-12-14T14:39:28.132409+00:00", "meta": {"OBJECT_NAME": "STARLINK-35583", "OBJECT_ID": "2025-270Z", "EPOCH": "2025-12-13T20:00:03.000384", "MEAN_MOTION": 15.50520021, "ECCENTRICITY": 0.00016066, "INCLINATION": 42.9999, "RA_OF_ASC_NODE": 186.2344, "ARG_OF_PERICENTER": 275.3605, "MEAN_ANOMALY": 148.033, "EPHEMERIS_TYPE": 0, "CLASSIFICATION_TYPE": "U", "NORAD_CAT_ID": 66611, "ELEMENT_SET_NO": 999, "REV_AT_EPOCH": 468, "BSTAR": 0.0017331097, "MEAN_MOTION_DOT": 0.00102457, "MEAN_MOTION_DDOT": 0}, "tle": {"line1": "1 66611U 25270Z   25347.83336806  .00102457  00000+0  17331-2 0  9999", "line2": "2 66611  42.9999 186.2344 0001606 275.3605 148.0330 15.50520021  4681"}}, "geometry": {"type": "Point", "coordinates": [-91.01916018609943, 42.9475899267213]}}, {"type": "Feature", "properties": {"norad_id": 66612, "name": "STARLINK-36039", "group": "last-30-days", "lat": 16.24758562251493, "lon": -159.93552129889858, "alt_km": 441.935500735759, "timestamp": "2025-12-14T14:39:28.132419+00:00", "meta": {"OBJECT_NAME": "STARLINK-36039", "OBJECT_ID": "2025-270AA", "EPOCH": "2025-12-13T20:00:03.000384", "MEAN_MOTION": 15.40635828, "ECCENTRICITY": 0.00019203, "INCLINATION": 42.9996, "RA_OF_ASC_NODE": 186.3204, "ARG_OF_PERICENTER": 266.8394, "MEAN_ANOMALY": 120.677, "EPHEMERIS_TYPE": 0, "CLASSIFICATION_TYPE": "U", "NORAD_CAT_ID": 66612, "ELEMENT_SET_NO": 999, "REV_AT_EPOCH": 457, "BSTAR": 0.0011433599, "MEAN_MOTION_DOT": 0.00047655, "MEAN_MOTION_DDOT": 0}, "tle": {"line1": "1 66612U 25270AA  25347.83336806  .00047655  00000+0  11434-2 0  9996", "line2": "2 66612  42.9996 186.3204 0001920 266.8394 120.6770 15.40635828  4577"}}, "geometry": {"type": "Point", "coordinates": [-159.93552129889858, 16.24758562251493]}}, {"type": "Feature", "properties": {"norad_id": 66613, "name": "STARLINK-36037", "group": "last-30-days", "lat": 31.289188419562993, "lon": -137.51208124816168, "alt_km": 440.3525837597026, "timestamp": "2025-12-14T14:39:28.132434+00:00", "meta": {"OBJECT_NAME": "STARLINK-36037", "OBJECT_ID": "2025-270AB", "EPOCH": "2025-12-13T20:00:03.000384", "MEAN_MOTION": 15.43657049, "ECCENTRICITY": 0.00019949, "INCLINATION": 42.9999, "RA_OF_ASC_NODE": 186.2709, "ARG_OF_PERICENTER": 259.2333, "MEAN_ANOMALY": 149.4144, "EPHEMERIS_TYPE": 0, "CLASSIFICATION_TYPE": "U", "NORAD_CAT_ID": 66613, "ELEMENT_SET_NO": 999, "REV_AT_EPOCH": 457, "BSTAR": -0.042435608, "MEAN_MOTION_DOT": -0.01769377, "MEAN_MOTION_DDOT": 0}, "tle": {"line1": "1 66613U 25270AB  25347.83336806 -.01769377  00000+0 -42436-1 0  9997", "line2": "2 66613  42.9999 186.2709 0001994 259.2333 149.4144 15.43657049  4576"}}, "geometry": {"type": "Point", "coordinates": [-137.51208124816168, 31.289188419562993]}}, {"type": "Feature", "properties": {"norad_id": 66614, "name": "STARLINK-36040", "group": "last-30-days", "lat": 42.72619888955424, "lon": -80.71900030112629, "alt_km": 409.1423877992802, "timestamp": "2025-12-14T14:39:28.132444+00:00", "meta": {"OBJECT_NAME": "STARLINK-36040", "OBJECT_ID": "2025-270AC", "EPOCH": "2025-12-13T20:00:03.000384", "MEAN_MOTION": 15.50520492, "ECCENTRICITY": 0.0001412, "INCLINATION": 42.9997, "RA_OF_ASC_NODE": 186.214, "ARG_OF_PERICENTER": 271.594, "MEAN_ANOMALY": 159.472, "EPHEMERIS_TYPE": 0, "CLASSIFICATION_TYPE": "U", "NORAD_CAT_ID": 66614, "ELEMENT_SET_NO": 999, "REV_AT_EPOCH": 441, "BSTAR": 0.00083846804, "MEAN_MOTION_DOT": 0.00049053, "MEAN_MOTION_DDOT": 0}, "tle": {"line1": "1 66614U 25270AC  25347.83336806  .00049053  00000+0  83847-3 0  9990", "line2": "2 66614  42.9997 186.2140 0001412 271.5940 159.4720 15.50520492  4413"}}, "geometry": {"type": "Point", "coordinates": [-80.71900030112629, 42.72619888955424]}}, {"type": "Feature", "properties": {"norad_id": 66615, "name": "STARLINK-35988", "group": "last-30-days", "lat": 42.19032479644412, "lon": -101.7052362122775, "alt_km": 426.46502749084266, "timestamp": "2025-12-14T14:39:28.132466+00:00", "meta": {"OBJECT_NAME": "STARLINK-35988", "OBJECT_ID": "2025-270AD", "EPOCH": "2025-12-13T20:00:03.000384", "MEAN_MOTION": 15.48240848, "ECCENTRICITY": 0.00014961, "INCLINATION": 42.9998, "RA_OF_ASC_NODE": 186.225, "ARG_OF_PERICENTER": 277.1886, "MEAN_ANOMALY": 149.7814, "EPHEMERIS_TYPE": 0, "CLASSIFICATION_TYPE": "U", "NORAD_CAT_ID": 66615, "ELEMENT_SET_NO": 999, "REV_AT_EPOCH": 441, "BSTAR": -0.043021939, "MEAN_MOTION_DOT": -0.02066252, "MEAN_MOTION_DDOT": 0}, "tle": {"line1": "1 66615U 25270AD  25347.83336806 -.02066252  00000+0 -43022-1 0  9994", "line2": "2 66615  42.9998 186.2250 0001496 277.1886 149.7814 15.48240848  4417"}}, "geometry": {"type": "Point", "coordinates": [-101.7052362122775, 42.19032479644412]}}, {"type": "Feature", "properties": {"norad_id": 66616, "name": "STARLINK-35391", "group": "last-30-days", "lat": 42.515115564724795, "lon": -78.03638457232047, "alt_km": 409.0699366689905, "timestamp": "2025-12-14T14:39:28.132477+00:00", "meta": {"OBJECT_NAME": "STARLINK-35391", "OBJECT_ID": "2025-270AE", "EPOCH": "2025-12-13T20:00:03.000384", "MEAN_MOTION": 15.50518485, "ECCENTRICITY": 0.00015008, "INCLINATION": 42.9997, "RA_OF_ASC_NODE": 186.21, "ARG_OF_PERICENTER": 267.8991, "MEAN_ANOMALY": 165.0824, "EPHEMERIS_TYPE": 0, "CLASSIFICATION_TYPE": "U", "NORAD_CAT_ID": 66616, "ELEMENT_SET_NO": 999, "REV_AT_EPOCH": 468, "BSTAR": 0.0014422681, "MEAN_MOTION_DOT": 0.0008501, "MEAN_MOTION_DDOT": 0}, "tle": {"line1": "1 66616U 25270AE  25347.83336806  .00085010  00000+0  14423-2 0  9998", "line2": "2 66616  42.9997 186.2100 0001500 267.8991 165.0824 15.50518485  4689"}}, "geometry": {"type": "Point", "coordinates": [-78.03638457232047, 42.515115564724795]}}, {"type": "Feature", "properties": {"norad_id": 66617, "name": "STARLINK-35940", "group": "last-30-days", "lat": 52.87635330890284, "lon": -99.62231054505727, "alt_km": 420.7466295541435, "timestamp": "2025-12-14T14:39:28.132489+00:00", "meta": {"OBJECT_NAME": "STARLINK-35940", "OBJECT_ID": "2025-271A", "EPOCH": "2025-12-13T20:00:03.000384", "MEAN_MOTION": 15.49345118, "ECCENTRICITY": 7.571e-05, "INCLINATION": 53.1598, "RA_OF_ASC_NODE": 182.005, "ARG_OF_PERICENTER": 100.4786, "MEAN_ANOMALY": 331.1592, "EPHEMERIS_TYPE": 0, "CLASSIFICATION_TYPE": "U", "NORAD_CAT_ID": 66617, "ELEMENT_SET_NO": 999, "REV_AT_EPOCH": 441, "BSTAR": -0.040966632, "MEAN_MOTION_DOT": -0.02033545, "MEAN_MOTION_DDOT": 0}, "tle": {"line1": "1 66617U 25271A   25347.83336806 -.02033545  00000+0 -40967-1 0  9991", "line2": "2 66617  53.1598 182.0050 0000757 100.4786 331.1592 15.49345118  4414"}}, "geometry": {"type": "Point", "coordinates": [-99.62231054505727, 52.87635330890284]}}]}